$$SOE
2459580.500000000, A.D. 2022-Jan-01 00:00:00.0000, 9.177426376158817E+07, 3.665022614635520E+08, 1.222177440006292E+07,
2459587.500000000, A.D. 2022-Jan-08 00:00:00.0000, 8.165627786695242E+07, 3.710005744097198E+08, 1.219605882667713E+07,
2459594.500000000, A.D. 2022-Jan-15 00:00:00.0000, 7.146603642726026E+07, 3.751708548725024E+08, 1.215955988771573E+07,
2459601.500000000, A.D. 2022-Jan-22 00:00:00.0000, 6.121355722135051E+07, 3.790146839288759E+08, 1.211248029309303E+07,
2459608.500000000, A.D. 2022-Jan-29 00:00:00.0000, 5.090859624574377E+07, 3.825338594782258E+08, 1.205502506506318E+07,
2459615.500000000, A.D. 2022-Feb-05 00:00:00.0000, 4.056065007371434E+07, 3.857303793403184E+08, 1.198740127985698E+07,
2459622.500000000, A.D. 2022-Feb-12 00:00:00.0000, 3.017896083132112E+07, 3.886064243296989E+08, 1.190981756261361E+07,
2459629.500000000, A.D. 2022-Feb-19 00:00:00.0000, 1.977252239191264E+07, 3.911643436349800E+08, 1.182248364761496E+07,
2459636.500000000, A.D. 2022-Feb-26 00:00:00.0000, 9.350086409300216E+06, 3.934066417329398E+08, 1.172561006212023E+07,
2459643.500000000, A.D. 2022-Mar-05 00:00:00.0000, -1.079831714304940E+06, 3.953359661747021E+08, 1.161940786625627E+07,
2459650.500000000, A.D. 2022-Mar-12 00:00:00.0000, -1.150894675974676E+07, 3.969550961343258E+08, 1.150408842082867E+07,
2459657.500000000, A.D. 2022-Mar-19 00:00:00.0000, -2.192919749995460E+07, 3.982669317048386E+08, 1.137986317648214E+07,
2459664.500000000, A.D. 2022-Mar-26 00:00:00.0000, -3.233274040743696E+07, 3.992744838935915E+08, 1.124694347943553E+07,
2459671.500000000, A.D. 2022-Apr-02 00:00:00.0000, -4.271194323044781E+07, 3.999808652198406E+08, 1.110554038093543E+07,
2459678.500000000, A.D. 2022-Apr-09 00:00:00.0000, -5.305937819922849E+07, 4.003892808792819E+08, 1.095586442400572E+07,
2459685.500000000, A.D. 2022-Apr-16 00:00:00.0000, -6.336781453487566E+07, 4.005030210915578E+08, 1.079812542653507E+07,
2459692.500000000, A.D. 2022-Apr-23 00:00:00.0000, -7.363021155488059E+07, 4.003254556801000E+08, 1.063253246407539E+07,
2459699.500000000, A.D. 2022-Apr-30 00:00:00.0000, -8.383971426454601E+07, 3.998600286026583E+08, 1.045929403876495E+07,
2459706.500000000, A.D. 2022-May-07 00:00:00.0000, -9.398964839079501E+07, 3.991102504195333E+08, 1.027861799107525E+07,
2459713.500000000, A.D. 2022-May-14 00:00:00.0000, -1.040735134887099E+08, 3.980796917071988E+08, 1.009071127417907E+07,
2459720.500000000, A.D. 2022-May-21 00:00:00.0000, -1.140849761645554E+08, 3.967719781488407E+08, 9.895779837836117E+06,
2459727.500000000, A.D. 2022-May-28 00:00:00.0000, -1.240178639039614E+08, 3.951907863130214E+08, 9.694028586197913E+06,
2459734.500000000, A.D. 2022-Jun-04 00:00:00.0000, -1.338661592375320E+08, 3.933398397789757E+08, 9.485661357633054E+06,
2459741.500000000, A.D. 2022-Jun-11 00:00:00.0000, -1.436239941071315E+08, 3.912229055844721E+08, 9.270880912658095E+06,
2459748.500000000, A.D. 2022-Jun-18 00:00:00.0000, -1.532856444004761E+08, 3.888437909851164E+08, 9.049888926765621E+06,
2459755.500000000, A.D. 2022-Jun-25 00:00:00.0000, -1.628455246295300E+08, 3.862063404690224E+08, 8.822885982077688E+06,
2459762.500000000, A.D. 2022-Jul-02 00:00:00.0000, -1.722981826224723E+08, 3.833144329395264E+08, 8.590071539590478E+06,
2459769.500000000, A.D. 2022-Jul-09 00:00:00.0000, -1.816382938420202E+08, 3.801719792225830E+08, 8.351643870203495E+06,
2459776.500000000, A.D. 2022-Jul-16 00:00:00.0000, -1.908606553883066E+08, 3.767829209632012E+08, 8.107800037671536E+06,
2459783.500000000, A.D. 2022-Jul-23 00:00:00.0000, -1.999601818869096E+08, 3.731512309733403E+08, 7.858736140994012E+06,
2459790.500000000, A.D. 2022-Jul-30 00:00:00.0000, -2.089319031764167E+08, 3.692809116613855E+08, 7.604647534065425E+06,
2459797.500000000, A.D. 2022-Aug-06 00:00:00.0000, -2.177709601962641E+08, 3.651759921722873E+08, 7.345728745500848E+06,
2459804.500000000, A.D. 2022-Aug-13 00:00:00.0000, -2.264725999011278E+08, 3.608405269798049E+08, 7.082173399082437E+06,
2459811.500000000, A.D. 2022-Aug-20 00:00:00.0000, -2.350321707706446E+08, 3.562785954180236E+08, 6.814174237222135E+06,
2459818.500000000, A.D. 2022-Aug-27 00:00:00.0000, -2.434451188429415E+08, 3.514943014139212E+08, 6.541923181566492E+06,
2459825.500000000, A.D. 2022-Sep-03 00:00:00.0000, -2.517069840204008E+08, 3.464917732977002E+08, 6.265611398818195E+06,
2459832.500000000, A.D. 2022-Sep-10 00:00:00.0000, -2.598133965543517E+08, 3.412751637017055E+08, 5.985429365376532E+06,
2459839.500000000, A.D. 2022-Sep-17 00:00:00.0000, -2.677600736776333E+08, 3.358486495334042E+08, 5.701566927924499E+06,
2459846.500000000, A.D. 2022-Sep-24 00:00:00.0000, -2.755428163250665E+08, 3.302164319607360E+08, 5.414213350210115E+06,
2459853.500000000, A.D. 2022-Oct-01 00:00:00.0000, -2.831575057033311E+08, 3.243827363798093E+08, 5.123557321979851E+06,
2459860.500000000, A.D. 2022-Oct-08 00:00:00.0000, -2.906000993038445E+08, 3.183518128816718E+08, 4.829786934983179E+06,
2459867.500000000, A.D. 2022-Oct-15 00:00:00.0000, -2.978666272907531E+08, 3.121279384132558E+08, 4.533089808947086E+06,
2459874.500000000, A.D. 2022-Oct-22 00:00:00.0000, -3.049531914449903E+08, 3.057154189459754E+08, 4.233653429299742E+06,
2459881.500000000, A.D. 2022-Oct-29 00:00:00.0000, -3.118559641621656E+08, 2.991185890540309E+08, 3.931665255111858E+06,
2459888.500000000, A.D. 2022-Nov-05 00:00:00.0000, -3.185711854013814E+08, 2.923418116348897E+08, 3.627312628580928E+06,
2459895.500000000, A.D. 2022-Nov-12 00:00:00.0000, -3.250951595511284E+08, 2.853894790335498E+08, 3.320782769433245E+06,
2459902.500000000, A.D. 2022-Nov-19 00:00:00.0000, -3.314242529320838E+08, 2.782660146139073E+08, 3.012262841780975E+06,
2459909.500000000, A.D. 2022-Nov-26 00:00:00.0000, -3.375548916735670E+08, 2.709758743764317E+08, 2.701940036676779E+06,
2459916.500000000, A.D. 2022-Dec-03 00:00:00.0000, -3.434835597971642E+08, 2.635235486068028E+08, 2.390001654061571E+06,
2459923.500000000, A.D. 2022-Dec-10 00:00:00.0000, -3.492067974622469E+08, 2.559135635709193E+08, 2.076635181352749E+06,
2459930.500000000, A.D. 2022-Dec-17 00:00:00.0000, -3.547211993493453E+08, 2.481504832285802E+08, 1.762028364285961E+06,
2459937.500000000, A.D. 2022-Dec-24 00:00:00.0000, -3.600234130729499E+08, 2.402389108976958E+08, 1.446369254552767E+06,
2459944.500000000, A.D. 2022-Dec-31 00:00:00.0000, -3.651101372672859E+08, 2.321834909744404E+08, 1.129846210213691E+06,
2459951.500000000, A.D. 2023-Jan-07 00:00:00.0000, -3.699781192240269E+08, 2.239889116695982E+08, 8.126479162912071E+05,
2459958.500000000, A.D. 2023-Jan-14 00:00:00.0000, -3.746241540523420E+08, 2.156599092563153E+08, 4.949636464828998E+05,
2459965.500000000, A.D. 2023-Jan-21 00:00:00.0000, -3.790450860103662E+08, 2.072012706572131E+08, 1.769835656643957E+05,
2459972.500000000, A.D. 2023-Jan-28 00:00:00.0000, -3.832378083410650E+08, 1.986178341757471E+08, -1.411012791111618E+05,
2459979.500000000, A.D. 2023-Feb-04 00:00:00.0000, -3.871992618219869E+08, 1.899144913966565E+08, -4.590990122692883E+05,
2459986.500000000, A.D. 2023-Feb-11 00:00:00.0000, -3.909264338295026E+08, 1.810961900604751E+08, -7.768168792929798E+05,
2459993.500000000, A.D. 2023-Feb-18 00:00:00.0000, -3.944163579859633E+08, 1.721679370899984E+08, -1.094061153861351E+06,
2460000.500000000, A.D. 2023-Feb-25 00:00:00.0000, -3.976661141303918E+08, 1.631348016073445E+08, -1.410637039830662E+06,
2460007.500000000, A.D. 2023-Mar-04 00:00:00.0000, -4.006728285139439E+08, 1.540019179595982E+08, -1.726348575778633E+06,
2460014.500000000, A.D. 2023-Mar-11 00:00:00.0000, -4.034336741959887E+08, 1.447744887520165E+08, -2.040998544571206E+06,
2460021.500000000, A.D. 2023-Mar-18 00:00:00.0000, -4.059458715996129E+08, 1.354577878374741E+08, -2.354388396188401E+06,
2460028.500000000, A.D. 2023-Mar-25 00:00:00.0000, -4.082066890306052E+08, 1.260571632131452E+08, -2.666318206193000E+06,
2460035.500000000, A.D. 2023-Apr-01 00:00:00.0000, -4.102134427439783E+08, 1.165780402162623E+08, -2.976586676524788E+06,
2460042.500000000, A.D. 2023-Apr-08 00:00:00.0000, -4.119634971831353E+08, 1.070259262423884E+08, -3.284991022042692E+06,
2460049.500000000, A.D. 2023-Apr-15 00:00:00.0000, -4.134542677407506E+08, 9.740641587878546E+07, -3.591326619083028E+06,
2460056.500000000, A.D. 2023-Apr-22 00:00:00.0000, -4.146832242455799E+08, 8.772519340166211E+07, -3.895386831789505E+06,
2460063.500000000, A.D. 2023-Apr-29 00:00:00.0000, -4.156478924498463E+08, 7.798803489125711E+07, -4.196963083048113E+06,
2460070.500000000, A.D. 2023-May-06 00:00:00.0000, -4.163458552857138E+08, 6.820081174379089E+07, -4.495844863060340E+06,
2460077.500000000, A.D. 2023-May-13 00:00:00.0000, -4.167747548789897E+08, 5.836949468371441E+07, -4.791819659427699E+06,
2460084.500000000, A.D. 2023-May-20 00:00:00.0000, -4.169322950975273E+08, 4.850015778245177E+07, -5.084672870780090E+06,
2460091.500000000, A.D. 2023-May-27 00:00:00.0000, -4.168162444517781E+08, 3.859898244928301E+07, -5.374187724353978E+06,
2460098.500000000, A.D. 2023-Jun-03 00:00:00.0000, -4.164244393031397E+08, 2.867226141263764E+07, -5.660145201092851E+06,
2460105.500000000, A.D. 2023-Jun-10 00:00:00.0000, -4.157547873736018E+08, 1.872640266944704E+07, -5.942323972358033E+06,
2460112.500000000, A.D. 2023-Jun-17 00:00:00.0000, -4.148052714878344E+08, 8.767933334686138E+06, -6.220500362366710E+06,
2460119.500000000, A.D. 2023-Jun-24 00:00:00.0000, -4.135739532484549E+08, -1.196496560293541E+06, -6.494448362206688E+06,
2460126.500000000, A.D. 2023-Jul-01 00:00:00.0000, -4.120589764110888E+08, -1.116010950022295E+07, -6.763939651851290E+06,
2460133.500000000, A.D. 2023-Jul-08 00:00:00.0000, -4.102585716524700E+08, -2.111599433718205E+07, -7.028743410246121E+06,
2460140.500000000, A.D. 2023-Jul-15 00:00:00.0000, -4.081710640299710E+08, -3.105710140333107E+07, -7.288626028579295E+06,
2460147.500000000, A.D. 2023-Jul-22 00:00:00.0000, -4.057948796350974E+08, -4.097623993293229E+07, -7.543351135226248E+06,
$$EOE